GSAT0233 (GALILEO 33)   
1 67160U 25302A   26044.50000000 -.00000008  00000+0  00000+0 0  9990
2 67160  54.3935 105.2952 0003011 207.0582 359.4109  1.70474578    20
GSAT0234 (GALILEO 34)   
1 67162U 25302C   26044.50000000 -.00000008  00000+0  00000+0 0  9992
2 67162  54.3967 105.2938 0003081 266.8423 119.7309  1.70475065   127
GPS BIII-9  (PRN 20)    
1 67588U 26017A   26062.99831483  .00000012  00000+0  00000+0 0  9992
2 67588  55.0184  92.9751 0001516  18.2827 341.7919  2.00560918429508
